ONEWEB-0267             
1 48985U 21060U   22076.58334491  .00021809  00000+0  56892-1 0  9997
2 48985  87.9203 177.7467 0002324 123.0254 162.7109 13.16577633 36582
ONEWEB-0268             
1 48986U 21060V   22076.58334491  .00023831  00000+0  62152-1 0  9991
2 48986  87.9226 177.7322 0001582 119.0228 319.1072 13.16584811 36841
ONEWEB-0269             
1 48987U 21060W   22076.58334491  .00021245  00000+0  55423-1 0  9992
2 48987  87.9213 177.7742 0001751 111.2232  54.4572 13.16580944 36624
ONEWEB-0270             
1 48988U 21060X   22076.58334491  .00023570  00000+0  61474-1 0  9999
2 48988  87.9228 177.7370 0002087 103.7772 345.5103 13.16582065 36671
ONEWEB-0271             
1 48989U 21060Y   22076.58334491  .00012207  00000+0  31858-1 0  9998
2 48989  87.9199 177.7588 0002401 116.5441  27.3766 13.16586248 36650
ONEWEB-0272             
1 48990U 21060Z   22076.58334491  .00024247  00000+0  63237-1 0  9993
2 48990  87.9213 177.7469 0002220 118.6614 276.1265 13.16581293 36610
ONEWEB-0273             
1 48991U 21060AA  22076.58334491  .00022145  00000+0  57769-1 0  9992
2 48991  87.9216 177.7370 0002240 109.9138 186.7504 13.16577928 36590
ONEWEB-0274             
1 48992U 21060AB  22076.58334491  .00020979  00000+0  54729-1 0  9999
2 48992  87.9192 177.7866 0002340 114.1167  62.5677 13.16579441 36623
ONEWEB-0275             
1 48993U 21060AC  22076.58334491  .00020683  00000+0  53962-1 0  9990
2 48993  87.9205 177.7527 0002064 113.8919 117.2440 13.16576585 36540
ONEWEB-0276             
1 48994U 21060AD  22076.58334491  .00023911  00000+0  62361-1 0  9991
2 48994  87.9205 177.8054 0002443 111.5126 316.0116 13.16581716 36577
ONEWEB-0277             
1 48995U 21060AE  22076.58334491  .00023848  00000+0  62201-1 0  9994
2 48995  87.9199 177.8063 0002605 118.5740 243.5369 13.16578642 36555
ONEWEB-0278             
1 48996U 21060AF  22076.58334491  .00024261  00000+0  63274-1 0  9996
2 48996  87.9257 177.6740 0002134 110.0902 306.5176 13.16580350 36707
ONEWEB-0279             
1 48997U 21060AG  22076.58334491  .00024103  00000+0  62867-1 0  9999
2 48997  87.9217 177.7355 0001906 103.1625 269.8431 13.16576233 36629
ONEWEB-0280             
1 48998U 21060AH  22076.58334491  .00022464  00000+0  58597-1 0  9993
2 48998  87.9209 177.7600 0002836 122.9919 184.5114 13.16578398 36559
ONEWEB-0281             
1 48999U 21060AJ  22076.58334491  .00021524  00000+0  56152-1 0  9995
2 48999  87.9211 177.7241 0001525 119.6892 155.1181 13.16577609 36632
ONEWEB-0282             
1 49000U 21060AK  22076.58334491  .00022183  00000+0  57862-1 0  9990
2 49000  87.9210 177.7855 0002427 109.7255  23.2539 13.16582519 36628
ONEWEB-0283             
1 49001U 21060AL  22076.58334491  .00020786  00000+0  54226-1 0  9999
2 49001  87.9201 177.7863 0002233 116.0408  71.5225 13.16580192 36638
ONEWEB-0284             
1 49002U 21060AM  22076.58334491  .00020582  00000+0  53697-1 0  9995
2 49002  87.9217 177.7824 0002338 107.8385 112.4158 13.16579299 36604
ONEWEB-0285             
1 49075U 21075A   22076.25001157 -.01929369  00000+0 -52909+0 0  9992
2 49075  87.6122 300.7559 0014509 280.1729  25.0357 14.50952420 32199
ONEWEB-0286             
1 49076U 21075B   22076.58334491  .00000014  00000+0  00000+0 0  9998
2 49076  87.8727 299.2836 0019993 305.3253 317.0464 13.46721617 31858
ONEWEB-0287             
1 49077U 21075C   22076.25001157 -.00040984  00000+0 -10603+0 0  9995
2 49077  87.9093 314.6382 0002128  74.8032 138.6437 13.17671412 30096
ONEWEB-0288             
1 49078U 21075D   22076.58334491 -.01888663  00000+0 -55555+0 0  9992
2 49078  87.6214 300.7382 0015826 282.8386 327.5989 14.47536611 32253
ONEWEB-0289             
1 49079U 21075E   22076.25001157 -.00040932  00000+0 -86921-1 0  9998
2 49079  87.9810 314.5983 0003916  79.0909 154.3292 13.30908853 30649
ONEWEB-0290             
1 49080U 21075F   22076.25001157 -.00041880  00000+0 -10836+0 0  9993
2 49080  87.9087 314.6437 0002154  77.0726 106.9778 13.17668922 30085
ONEWEB-0291             
1 49081U 21075G   22076.25001157 -.00039988  00000+0 -10345+0 0  9995
2 49081  87.9073 314.6558 0002064  74.9687 160.5479 13.17666561 30099
ONEWEB-0293             
1 49082U 21075H   22076.25001157 -.00042148  00000+0 -10905+0 0  9990
2 49082  87.9096 314.6044 0002172  75.3908  79.3897 13.17673402 30101
ONEWEB-0294             
1 49083U 21075J   22076.58334491  .00000014  00000+0  00000+0 0  9996
2 49083  87.8678 299.2524 0021203 299.7778 305.5391 13.49526337 31867
ONEWEB-0295             
1 49084U 21075K   22076.25001157 -.00042098  00000+0 -10892+0 0  9991
2 49084  87.9085 314.5834 0002154  62.2467  85.0442 13.17673344 30040
ONEWEB-0296             
1 49085U 21075L   22076.58334491  .00000014  00000+0  00000+0 0  9998
2 49085  87.8463 299.2755 0019384 306.9734  31.9564 13.56562316 31875
ONEWEB-0297             
1 49086U 21075M   22076.25001157 -.01929138  00000+0 -54918+0 0  9990
2 49086  87.6156 300.7781 0014111 278.7430 240.3671 14.49193611 32206
ONEWEB-0298             
1 49087U 21075N   22076.25001157 -.00042020  00000+0 -10872+0 0  9997
2 49087  87.9103 314.5772 0001332  71.8770  68.0856 13.17671689 30102
ONEWEB-0299             
1 49088U 21075P   22076.25001157 -.00041911  00000+0 -10844+0 0  9995
2 49088  87.9096 314.5358 0001596  74.9838  57.6424 13.17670211 30065
ONEWEB-0300             
1 49089U 21075Q   22076.25001157 -.01872353  00000+0 -50359+0 0  9994
2 49089  87.6161 300.7720 0015967 287.8051 243.9936 14.51731956 32215
ONEWEB-0301             
1 49090U 21075R   22076.58334491  .00000014  00000+0  00000+0 0  9994
2 49090  87.8485 299.2317 0017499 302.4061 177.0300 13.55147421 31862
ONEWEB-0302             
1 49091U 21075S   22076.58334491  .00000014  00000+0  00000+0 0  9995
2 49091  87.8698 299.2828 0018560 300.7455 122.0442 13.48651433 31855
ONEWEB-0304             
1 49092U 21075T   22076.25001157 -.00041298  00000+0 -10685+0 0  9991
2 49092  87.9088 314.6060 0001762  81.5701 124.4832 13.17668003 30040
ONEWEB-0305             
1 49093U 21075U   22076.25001157 -.00039643  00000+0 -10255+0 0  9996
2 49093  87.9091 314.6468 0001590  65.9437 176.8006 13.17668849 30073
ONEWEB-0308             
1 49094U 21075V   22076.58334491  .00000014  00000+0  00000+0 0  9998
2 49094  87.8552 299.2633 0018197 308.6221 230.2061 13.53600025 31862
ONEWEB-0309             
1 49095U 21075W   22076.25001157 -.00040682  00000+0 -10525+0 0  9993
2 49095  87.9098 314.6400 0002471  80.0764 140.7455 13.17667475 30058
ONEWEB-0310             
1 49096U 21075X   22076.25001157 -.01939730  00000+0 -53265+0 0  9994
2 49096  87.6130 300.8859 0014866 287.9310  88.0191 14.50904595 32209
ONEWEB-0311             
1 49097U 21075Y   22076.25001157 -.00041498  00000+0 -10737+0 0  9996
2 49097  87.9096 314.6436 0001404  69.7410 128.9916 13.17668463 30119
ONEWEB-0312             
1 49098U 21075Z   22076.25001157 -.00042172  00000+0 -10912+0 0  9992
2 49098  87.9109 314.5852 0002059  70.4110  91.5661 13.17669499 30076
ONEWEB-0313             
1 49099U 21075AA  22076.25001157 -.00040343  00000+0 -10437+0 0  9993
2 49099  87.9094 314.6467 0002074  68.8798 159.2098 13.17667819 30084
ONEWEB-0314             
1 49100U 21075AB  22076.25001157 -.00039282  00000+0 -10161+0 0  9990
2 49100  87.9100 314.6372 0002016  68.9330 181.2738 13.17671051 30055
ONEWEB-0315             
1 49101U 21075AC  22076.25001157 -.01920307  00000+0 -52367+0 0  9993
2 49101  87.6102 300.7666 0016104 285.5590 118.7379 14.51175675 32211
ONEWEB-0316             
1 49102U 21075AD  22076.25001157 -.00054467  00000+0 -62692-2 0  9993
2 49102  87.1951 293.0697 0015793 265.4298 100.2215 14.86074347 32264
ONEWEB-0317             
1 49103U 21075AE  22076.58334491 -.01806206  00000+0 -49229+0 0  9995
2 49103  87.6399 300.5167 0015561 282.4506 306.8688 14.50985055 32262
ONEWEB-0318             
1 49104U 21075AF  22076.25001157 -.00053857  00000+0 -61958-2 0  9991
2 49104  87.1904 292.9560 0016785 263.3894 139.1362 14.86079870 32262
ONEWEB-0319             
1 49105U 21075AG  22076.25001157 -.00041720  00000+0 -10794+0 0  9997
2 49105  87.9095 314.6054 0001151  55.3505 136.1795 13.17672588 30084
ONEWEB-0323             
1 49106U 21075AH  22076.58334491  .00000014  00000+0  00000+0 0  9992
2 49106  87.8763 299.2469 0019205 292.8978 327.0051 13.46559098 31860
ONEWEB-0329             
1 49107U 21075AJ  22076.25001157 -.00042032  00000+0 -10876+0 0  9997
2 49107  87.9093 314.6077 0001842  71.8523 104.9134 13.17667337 30063
ONEWEB-0330             
1 49108U 21075AK  22076.25001157 -.00042101  00000+0 -10893+0 0  9994
2 49108  87.9096 314.6220 0001899  74.3622  95.0081 13.17672702 30105
ONEWEB-0292             
1 49186U 21083A   22076.58334491  .00000015  00000+0  00000+0 0  9990
2 49186  87.8581 268.6345 0021402  28.0026 295.4745 13.58085524 28375
ONEWEB-0303             
1 49187U 21083B   22075.83334491 -.00002286  00000+0 -58342-2 0  9997
2 49187  87.9054 284.1822 0001492  78.2371  47.2169 13.18682465  3281
ONEWEB-0306             
1 49188U 21083C   22075.83334491 -.00002484  00000+0 -63354-2 0  9997
2 49188  87.9062 284.1657 0001032  80.4240  74.3907 13.18679521  3287
ONEWEB-0307             
1 49189U 21083D   22076.58334491  .00000015  00000+0  00000+0 0  9993
2 49189  87.8512 268.6480 0018897  21.1742 173.2030 13.58252250 28366
ONEWEB-0320             
1 49190U 21083E   22075.83334491 -.00002347  00000+0 -59893-2 0  9991
2 49190  87.9057 284.1878 0001992  88.4481  44.4120 13.18679368  3294
ONEWEB-0321             
1 49191U 21083F   22076.25001157 -.00016035  00000+0 -16802-2 0  9991
2 49191  87.2005 263.2047 0004548  62.3117 300.2220 14.89805967 28706
ONEWEB-0322             
1 49192U 21083G   22076.58334491  .00000014  00000+0  00000+0 0  9996
2 49192  87.8566 268.6878 0020385  31.7165 126.7903 13.55681305 28356
